OBJECT_NAME,OBJECT_ID,EPOCH,MEAN_MOTION,ECCENTRICITY,INCLINATION,RA_OF_ASC_NODE,ARG_OF_PERICENTER,MEAN_ANOMALY,EPHEMERIS_TYPE,CLASSIFICATION_TYPE,NORAD_CAT_ID,ELEMENT_SET_NO,REV_AT_EPOCH,BSTAR,MEAN_MOTION_DOT,MEAN_MOTION_DDOT
LEMUR-1,2014-033AL,2026-07-07T21:48:25.688160,14.85322651,.0048383,97.7901,338.2567,11.9074,348.3273,0,U,40044,999,64854,.13327E-3,.1114E-4,0
LEMUR-2-GREENBERG,2017-042N,2026-07-07T17:33:50.435136,15.31988787,.0007164,97.3832,9.2717,291.5288,68.5190,0,U,42837,999,49153,.35669E-3,.10951E-3,0
LEMUR-2-ANDIS,2017-042P,2026-07-07T23:21:47.725056,15.35715562,.0007086,97.3681,9.7703,288.9760,71.0715,0,U,42838,999,49164,.36526E-3,.12622E-3,0
LEMUR-2-MONSON,2017-042Q,2026-07-07T10:59:43.408320,15.28615242,.00051467,97.4095,8.9398,281.0533,79.0128,0,U,42839,999,49126,.37280373E-3,.10309E-3,0
LEMUR-2-FURIAUS,2017-042R,2026-07-07T17:45:16.770816,15.30959490,.0006573,97.3781,7.1882,358.8264,1.2961,0,U,42840,999,49135,.38105E-3,.11334E-3,0
LEMUR-2-PETERG,2017-042S,2026-07-07T10:45:59.616288,15.34821414,.00028628,97.4001,13.5239,258.0828,102.0094,0,U,42841,999,49154,.4771216E-3,.16045E-3,0
LEMUR-2-DEMBITZ,2017-042T,2026-07-07T22:55:56.681760,15.30951469,.0005162,97.3834,10.4419,306.9410,53.1358,0,U,42842,999,49152,.29599E-3,.8779E-4,0
LEMUR-2-ZACHARY,2017-042W,2026-07-07T18:26:52.963584,15.52194188,.0002324,97.3592,20.8688,287.1749,72.9249,0,U,42845,999,49239,.59972E-3,.36347E-3,0
LEMUR-2-AMANDA-SVANTE,2021-034B,2026-07-08T03:41:04.964352,15.35642948,.0004145,97.5749,268.0099,159.4172,200.7239,0,U,48269,999,28427,.62499E-3,.21616E-3,0
LEMUR-2-SPECIAL-K,2021-034F,2026-07-07T18:21:55.147104,15.72000030,.0005799,97.5628,277.2182,219.6386,140.4453,0,U,48273,999,28491,.1322E-2,.17574E-2,0
LEMUR-2-EMBRIONOVIS,2023-084AQ,2026-07-07T08:57:42.516000,15.38085565,.00077512,97.6318,333.3577,236.9428,123.1072,0,U,56970,999,17078,.26323363E-3,.979E-4,0
LEMUR-2-DEVERILL-M-T,2023-100F,2026-07-07T16:45:47.686176,15.40821036,.0004797,99.4460,233.3957,329.3522,30.7437,0,U,57391,999,16440,.3957E-3,.16121E-3,0
LEMUR-2-BASS,2023-174D,2026-07-08T05:11:01.282848,15.43826326,.0007969,97.3840,274.2317,99.0250,261.1900,0,U,58259,999,14860,.26656E-3,.12006E-3,0
LEMUR-2-JK0903EM1407,2023-174CJ,2026-07-08T03:50:07.154592,15.52797979,.0004247,97.3916,280.2370,55.7478,304.4177,0,U,58336,999,14898,.29696E-3,.18305E-3,0
LEMUR-2-MJR092620,2023-174CN,2026-07-08T04:54:35.248896,15.45677946,.0005993,97.3971,279.6315,53.4515,306.7285,0,U,58340,999,14889,.26892E-3,.12896E-3,0
LEMUR-2-NIMBUS2000,2024-022A,2026-07-07T00:31:18.539904,15.40867104,.00095303,97.4093,38.2803,55.1826,305.0316,0,U,58899,999,13532,.40709295E-3,.16668E-3,0
LEMUR-2-VALHALLA,2024-022B,2026-07-07T00:33:46.291680,15.40309483,.0010016,97.4094,38.2595,51.0671,309.1466,0,U,58900,999,13532,.29263256E-3,.11733E-3,0
LEMUR-2-CAEL,2024-022E,2026-07-08T01:18:51.329664,15.41683685,.0007874,97.4079,40.2772,34.1900,325.9853,0,U,58903,999,13555,.25323E-3,.10607E-3,0
LEMUR-2-JOHNNYTRUONG,2024-043BA,2026-07-07T21:59:34.959840,15.62120099,.0004339,97.5391,341.9295,114.1019,246.0692,0,U,59146,999,13127,.31687E-3,.27703E-3,0
LEMUR-2-TOMATOKECHUP,2024-149D,2026-07-07T18:07:55.111008,15.36476705,.0002964,97.3789,270.8599,136.0140,224.1341,0,U,60471,999,10532,.20696E-3,.7285E-4,0
LEMUR-2-STELLA,2024-149BT,2026-07-08T04:37:18.317568,15.12271376,.000106,97.6726,271.7449,111.1796,248.9548,0,U,60533,999,10367,.39238E-3,.6723E-4,0
LEMUR-2-MARHISYAM,2024-149BW,2026-07-08T04:20:17.219904,15.11684747,.0002783,97.6873,272.2032,79.9279,280.2265,0,U,60536,999,10365,.40802E-3,.688E-4,0
LEMUR-2-AHMED-ASRAR,2024-149DN,2026-07-08T01:29:22.545600,15.13199165,.0000633,97.6996,274.2584,252.4432,107.6729,0,U,60576,999,10372,.40129E-3,.7058E-4,0
LEMUR-2-LLOYD,2024-149DP,2026-07-07T11:02:38.252544,15.09650711,.00049101,97.6734,269.6046,90.2019,269.9772,0,U,60577,999,10345,.40278112E-3,.642E-4,0
LEMUR-2-SQUIRRELCOMM,2024-149DQ,2026-07-08T00:49:41.985408,15.07397331,.0004747,97.6707,269.8822,354.4134,5.7039,0,U,60578,999,10354,.2474E-3,.3681E-4,0
LEMUR-2-SIERRINI,2024-149DR,2026-07-07T19:28:04.141056,15.11407034,.0006598,97.6834,271.4998,109.6259,250.5684,0,U,60579,999,10357,.34683E-3,.5795E-4,0
LEMUR-2-WILSON,2025-009CP,2026-07-08T00:59:46.521024,14.95261353,.0002538,97.7022,267.1406,2.7449,357.3786,0,U,62694,999,8047,.17252E-3,.1842E-4,0
LEMUR-2-STAR-FOX,2025-009CR,2026-07-07T17:39:58.580352,15.02784369,.0003327,97.6925,270.1988,67.8179,292.3399,0,U,62696,999,8064,.30359E-3,.4001E-4,0
LEMUR-2-ARIANNA,2025-009CU,2026-07-07T17:37:46.255296,15.02783669,.0003665,97.6863,269.9554,73.0390,287.1237,0,U,62699,999,8064,.31804E-3,.4195E-4,0
LEMUR-2-ALISIA,2025-009DB,2026-07-07T18:36:09.136800,15.03098125,.0003474,97.6954,270.8056,153.3785,206.7619,0,U,62706,999,10325,.43504E-3,.581E-4,0
