LEMUR-1                 
1 40044U 14033AL  26188.90863065  .00001114  00000+0  13327-3 0  9990
2 40044  97.7901 338.2567 0048383  11.9074 348.3273 14.85322651648543
LEMUR-2-GREENBERG       
1 42837U 17042N   26188.73183374  .00010951  00000+0  35669-3 0  9996
2 42837  97.3832   9.2717 0007164 291.5288  68.5190 15.31988787491535
LEMUR-2-ANDIS           
1 42838U 17042P   26188.97346904  .00012622  00000+0  36526-3 0  9993
2 42838  97.3681   9.7703 0007086 288.9760  71.0715 15.35715562491643
LEMUR-2-MONSON          
1 42839U 17042Q   26188.45814130  .00010309  00000+0  37280-3 0  9996
2 42839  97.4095   8.9398 0005146 281.0533  79.0128 15.28615242491262
LEMUR-2-FURIAUS         
1 42840U 17042R   26188.73977744  .00011334  00000+0  38105-3 0  9996
2 42840  97.3781   7.1882 0006573 358.8264   1.2961 15.30959490491354
LEMUR-2-PETERG          
1 42841U 17042S   26188.44860667  .00016045  00000+0  47712-3 0  9998
2 42841  97.4001  13.5239 0002862 258.0828 102.0094 15.34821414491548
LEMUR-2-DEMBITZ         
1 42842U 17042T   26188.95551715  .00008779  00000+0  29599-3 0  9994
2 42842  97.3834  10.4419 0005162 306.9410  53.1358 15.30951469491521
LEMUR-2-ZACHARY         
1 42845U 17042W   26188.76866856  .00036347  00000+0  59972-3 0  9991
2 42845  97.3592  20.8688 0002324 287.1749  72.9249 15.52194188492395
LEMUR-2-AMANDA-SVANTE   
1 48269U 21034B   26189.15352968  .00021616  00000+0  62499-3 0  9992
2 48269  97.5749 268.0099 0004145 159.4172 200.7239 15.35642948284272
LEMUR-2-SPECIAL-K       
1 48273U 21034F   26188.76522161  .00175740  00000+0  13220-2 0  9992
2 48273  97.5628 277.2182 0005799 219.6386 140.4453 15.72000030284910
LEMUR-2-EMBRIONOVIS     
1 56970U 23084AQ  26188.37340875  .00009790  00000+0  26323-3 0  9999
2 56970  97.6318 333.3577 0007751 236.9428 123.1072 15.38085565170783
LEMUR-2-DEVERILL-M-T    
1 57391U 23100F   26188.69846859  .00016121  00000+0  39570-3 0  9998
2 57391  99.4460 233.3957 0004797 329.3522  30.7437 15.40821036164403
LEMUR-2-BASS            
1 58259U 23174D   26189.21598707  .00012006  00000+0  26656-3 0  9997
2 58259  97.3840 274.2317 0007969  99.0250 261.1900 15.43826326148602
LEMUR-2-JK0903EM1407    
1 58336U 23174CJ  26189.15980503  .00018305  00000+0  29696-3 0  9990
2 58336  97.3916 280.2370 0004247  55.7478 304.4177 15.52797979148984
LEMUR-2-MJR092620       
1 58340U 23174CN  26189.20457464  .00012896  00000+0  26892-3 0  9990
2 58340  97.3971 279.6315 0005993  53.4515 306.7285 15.45677946148895
LEMUR-2-NIMBUS2000      
1 58899U 24022A   26188.02174236  .00016668  00000+0  40709-3 0  9998
2 58899  97.4093  38.2803 0009530  55.1826 305.0316 15.40867104135329
LEMUR-2-VALHALLA        
1 58900U 24022B   26188.02345245  .00011733  00000+0  29263-3 0  9991
2 58900  97.4094  38.2595 0010016  51.0671 309.1466 15.40309483135327
LEMUR-2-CAEL            
1 58903U 24022E   26189.05476076  .00010607  00000+0  25323-3 0  9997
2 58903  97.4079  40.2772 0007874  34.1900 325.9853 15.41683685135559
LEMUR-2-JOHNNYTRUONG    
1 59146U 24043BA  26188.91637685  .00027703  00000+0  31687-3 0  9994
2 59146  97.5391 341.9295 0004339 114.1019 246.0692 15.62120099131278
LEMUR-2-TOMATOKECHUP    
1 60471U 24149D   26188.75549897  .00007285  00000+0  20696-3 0  9994
2 60471  97.3789 270.8599 0002964 136.0140 224.1341 15.36476705105321
LEMUR-2-STELLA          
1 60533U 24149BT  26189.19257312  .00006723  00000+0  39238-3 0  9998
2 60533  97.6726 271.7449 0001060 111.1796 248.9548 15.12271376103675
LEMUR-2-MARHISYAM       
1 60536U 24149BW  26189.18075486  .00006880  00000+0  40802-3 0  9993
2 60536  97.6873 272.2032 0002783  79.9279 280.2265 15.11684747103657
LEMUR-2-AHMED-ASRAR     
1 60576U 24149DN  26189.06206650  .00007058  00000+0  40129-3 0  9993
2 60576  97.6996 274.2584 0000633 252.4432 107.6729 15.13199165103724
LEMUR-2-LLOYD           
1 60577U 24149DP  26188.46016496  .00006420  00000+0  40278-3 0  9991
2 60577  97.6734 269.6046 0004910  90.2019 269.9772 15.09650711103451
LEMUR-2-SQUIRRELCOMM    
1 60578U 24149DQ  26189.03451372  .00003681  00000+0  24740-3 0  9994
2 60578  97.6707 269.8822 0004747 354.4134   5.7039 15.07397331103543
LEMUR-2-SIERRINI        
1 60579U 24149DR  26188.81115904  .00005795  00000+0  34683-3 0  9993
2 60579  97.6834 271.4998 0006598 109.6259 250.5684 15.11407034103578
LEMUR-2-WILSON          
1 62694U 25009CP  26189.04151066  .00001842  00000+0  17252-3 0  9996
2 62694  97.7022 267.1406 0002538   2.7449 357.3786 14.95261353 80473
LEMUR-2-STAR-FOX        
1 62696U 25009CR  26188.73609468  .00004001  00000+0  30359-3 0  9990
2 62696  97.6925 270.1988 0003327  67.8179 292.3399 15.02784369 80647
LEMUR-2-ARIANNA         
1 62699U 25009CU  26188.73456314  .00004195  00000+0  31804-3 0  9993
2 62699  97.6863 269.9554 0003665  73.0390 287.1237 15.02783669 80640
LEMUR-2-ALISIA          
1 62706U 25009DB  26188.77510575  .00005810  00000+0  43504-3 0  9991
2 62706  97.6954 270.8056 0003474 153.3785 206.7619 15.03098125103257
